{
  "type": "FeatureCollection",
  "features": [
    {
      "type": "Feature",
      "properties": {
        "norad_id": 34492,
        "name": "IRIDIUM 33 DEB",
        "group": "iridium-33-debris",
        "lat": 82.69467191059437,
        "lon": 4.909518686421535,
        "alt_km": 931.6857909463106,
        "timestamp": "2025-12-08T23:34:04.356176+00:00",
        "meta_object_name": "IRIDIUM 33 DEB",
        "meta_object_id": "1997-051GH",
        "meta_epoch": "2025-12-07T23:50:44.784960",
        "meta_mean_motion": 14.25534668,
        "meta_eccentricity": 0.0189621,
        "meta_inclination": 86.4724,
        "meta_ra_of_asc_node": 336.5463,
        "meta_arg_of_pericenter": 253.6464,
        "meta_mean_anomaly": 161.0806,
        "meta_ephemeris_type": 0,
        "meta_classification_type": "U",
        "meta_norad_cat_id": 34492,
        "meta_element_set_no": 999,
        "meta_rev_at_epoch": 84991,
        "meta_bstar": 0.0068533726,
        "meta_mean_motion_dot": 0.00019616,
        "meta_mean_motion_ddot": 0,
        "tle_line1": "1 34492U 97051GH  25341.99357390  .00019616  00000+0  68534-2 0  9994",
        "tle_line2": "2 34492  86.4724 336.5463 0189621 253.6464 161.0806 14.25534668849919"
      },
      "geometry": {
        "type": "Point",
        "coordinates": [
          4.909518686421535,
          82.69467191059437
        ]
      }
    },
    {
      "type": "Feature",
      "properties": {
        "norad_id": 34497,
        "name": "IRIDIUM 33 DEB",
        "group": "iridium-33-debris",
        "lat": -62.3629106688738,
        "lon": 46.86587781915574,
        "alt_km": 774.1345116449547,
        "timestamp": "2025-12-08T23:34:04.356186+00:00",
        "meta_object_name": "IRIDIUM 33 DEB",
        "meta_object_id": "1997-051GN",
        "meta_epoch": "2025-12-08T05:36:30.454848",
        "meta_mean_motion": 14.27433857,
        "meta_eccentricity": 0.00792669,
        "meta_inclination": 86.2781,
        "meta_ra_of_asc_node": 54.3266,
        "meta_arg_of_pericenter": 354.2573,
        "meta_mean_anomaly": 60.9681,
        "meta_ephemeris_type": 0,
        "meta_classification_type": "U",
        "meta_norad_cat_id": 34497,
        "meta_element_set_no": 999,
        "meta_rev_at_epoch": 86819,
        "meta_bstar": 0.00099948943,
        "meta_mean_motion_dot": 2.553e-05,
        "meta_mean_motion_ddot": 0,
        "tle_line1": "1 34497U 97051GN  25342.23368582  .00002553  00000+0  99949-3 0  9999",
        "tle_line2": "2 34497  86.2781  54.3266 0079266 354.2573  60.9681 14.27433857868192"
      },
      "geometry": {
        "type": "Point",
        "coordinates": [
          46.86587781915574,
          -62.3629106688738
        ]
      }
    },
    {
      "type": "Feature",
      "properties": {
        "norad_id": 34508,
        "name": "IRIDIUM 33 DEB",
        "group": "iridium-33-debris",
        "lat": -51.0479414747688,
        "lon": 99.73330841747133,
        "alt_km": 796.8831999983631,
        "timestamp": "2025-12-08T23:34:04.356197+00:00",
        "meta_object_name": "IRIDIUM 33 DEB",
        "meta_object_id": "1997-051GZ",
        "meta_epoch": "2025-12-08T08:46:53.155200",
        "meta_mean_motion": 14.38366124,
        "meta_eccentricity": 0.00658306,
        "meta_inclination": 86.3707,
        "meta_ra_of_asc_node": 104.4975,
        "meta_arg_of_pericenter": 187.0379,
        "meta_mean_anomaly": 172.9903,
        "meta_ephemeris_type": 0,
        "meta_classification_type": "U",
        "meta_norad_cat_id": 34508,
        "meta_element_set_no": 999,
        "meta_rev_at_epoch": 87246,
        "meta_bstar": 0.0022360779,
        "meta_mean_motion_dot": 7.006e-05,
        "meta_mean_motion_ddot": 0,
        "tle_line1": "1 34508U 97051GZ  25342.36589300  .00007006  00000+0  22361-2 0  9990",
        "tle_line2": "2 34508  86.3707 104.4975 0065830 187.0379 172.9903 14.38366124872466"
      },
      "geometry": {
        "type": "Point",
        "coordinates": [
          99.73330841747133,
          -51.0479414747688
        ]
      }
    },
    {
      "type": "Feature",
      "properties": {
        "norad_id": 34521,
        "name": "IRIDIUM 33 DEB",
        "group": "iridium-33-debris",
        "lat": 30.702501990225088,
        "lon": -149.95208368406156,
        "alt_km": 681.004475201481,
        "timestamp": "2025-12-08T23:34:04.356207+00:00",
        "meta_object_name": "IRIDIUM 33 DEB",
        "meta_object_id": "1997-051HN",
        "meta_epoch": "2025-12-08T14:40:57.220032",
        "meta_mean_motion": 14.63311366,
        "meta_eccentricity": 0.00011725,
        "meta_inclination": 86.3799,
        "meta_ra_of_asc_node": 32.3653,
        "meta_arg_of_pericenter": 244.4275,
        "meta_mean_anomaly": 115.6816,
        "meta_ephemeris_type": 0,
        "meta_classification_type": "U",
        "meta_norad_cat_id": 34521,
        "meta_element_set_no": 999,
        "meta_rev_at_epoch": 88412,
        "meta_bstar": 0.0013531538,
        "meta_mean_motion_dot": 7.004e-05,
        "meta_mean_motion_ddot": 0,
        "tle_line1": "1 34521U 97051HN  25342.61177338  .00007004  00000+0  13532-2 0  9995",
        "tle_line2": "2 34521  86.3799  32.3653 0001172 244.4275 115.6816 14.63311366884125"
      },
      "geometry": {
        "type": "Point",
        "coordinates": [
          -149.95208368406156,
          30.702501990225088
        ]
      }
    },
    {
      "type": "Feature",
      "properties": {
        "norad_id": 34525,
        "name": "IRIDIUM 33 DEB",
        "group": "iridium-33-debris",
        "lat": -64.16507485675982,
        "lon": -124.0246542538851,
        "alt_km": 759.9323542723305,
        "timestamp": "2025-12-08T23:34:04.356218+00:00",
        "meta_object_name": "IRIDIUM 33 DEB",
        "meta_object_id": "1997-051HS",
        "meta_epoch": "2025-12-08T10:52:50.630592",
        "meta_mean_motion": 14.42890463,
        "meta_eccentricity": 0.00066346,
        "meta_inclination": 86.373,
        "meta_ra_of_asc_node": 48.6732,
        "meta_arg_of_pericenter": 105.0702,
        "meta_mean_anomaly": 275.0516,
        "meta_ephemeris_type": 0,
        "meta_classification_type": "U",
        "meta_norad_cat_id": 34525,
        "meta_element_set_no": 999,
        "meta_rev_at_epoch": 88026,
        "meta_bstar": 0.00067150553,
        "meta_mean_motion_dot": 2.262e-05,
        "meta_mean_motion_ddot": 0,
        "tle_line1": "1 34525U 97051HS  25342.45336378  .00002262  00000+0  67151-3 0  9990",
        "tle_line2": "2 34525  86.3730  48.6732 0006634 105.0702 275.0516 14.42890463880263"
      },
      "geometry": {
        "type": "Point",
        "coordinates": [
          -124.0246542538851,
          -64.16507485675982
        ]
      }
    },
    {
      "type": "Feature",
      "properties": {
        "norad_id": 34529,
        "name": "IRIDIUM 33 DEB",
        "group": "iridium-33-debris",
        "lat": 9.91682966436759,
        "lon": -143.6232232031024,
        "alt_km": 755.3195673893597,
        "timestamp": "2025-12-08T23:34:04.356228+00:00",
        "meta_object_name": "IRIDIUM 33 DEB",
        "meta_object_id": "1997-051HW",
        "meta_epoch": "2025-12-08T04:26:38.874624",
        "meta_mean_motion": 14.40610073,
        "meta_eccentricity": 0.00042345,
        "meta_inclination": 86.3644,
        "meta_ra_of_asc_node": 37.3532,
        "meta_arg_of_pericenter": 192.5106,
        "meta_mean_anomaly": 167.5989,
        "meta_ephemeris_type": 0,
        "meta_classification_type": "U",
        "meta_norad_cat_id": 34529,
        "meta_element_set_no": 999,
        "meta_rev_at_epoch": 88076,
        "meta_bstar": 0.00018799813,
        "meta_mean_motion_dot": 6.19e-06,
        "meta_mean_motion_ddot": 0,
        "tle_line1": "1 34529U 97051HW  25342.18517216  .00000619  00000+0  18800-3 0  9997",
        "tle_line2": "2 34529  86.3644  37.3532 0004234 192.5106 167.5989 14.40610073880766"
      },
      "geometry": {
        "type": "Point",
        "coordinates": [
          -143.6232232031024,
          9.91682966436759
        ]
      }
    },
    {
      "type": "Feature",
      "properties": {
        "norad_id": 34538,
        "name": "IRIDIUM 33 DEB",
        "group": "iridium-33-debris",
        "lat": -20.282234978775524,
        "lon": 5.823043751294675,
        "alt_km": 731.4022249112695,
        "timestamp": "2025-12-08T23:34:04.356238+00:00",
        "meta_object_name": "IRIDIUM 33 DEB",
        "meta_object_id": "1997-051JF",
        "meta_epoch": "2025-12-08T12:43:03.891360",
        "meta_mean_motion": 14.42610474,
        "meta_eccentricity": 0.00333253,
        "meta_inclination": 86.2772,
        "meta_ra_of_asc_node": 7.3997,
        "meta_arg_of_pericenter": 342.2911,
        "meta_mean_anomaly": 171.1189,
        "meta_ephemeris_type": 0,
        "meta_classification_type": "U",
        "meta_norad_cat_id": 34538,
        "meta_element_set_no": 999,
        "meta_rev_at_epoch": 87695,
        "meta_bstar": 0.0013892431,
        "meta_mean_motion_dot": 4.663e-05,
        "meta_mean_motion_ddot": 0,
        "tle_line1": "1 34538U 97051JF  25342.52990615  .00004663  00000+0  13892-2 0  9991",
        "tle_line2": "2 34538  86.2772   7.3997 0033325 342.2911 171.1189 14.42610474876956"
      },
      "geometry": {
        "type": "Point",
        "coordinates": [
          5.823043751294675,
          -20.282234978775524
        ]
      }
    }
  ]
}